ONEWEB-0566             
1 56061U 23043R   25305.42822718 -.00000021  00000+0 -83228-4 0  9990
2 56061  87.9169 289.4140 0002213  93.4568 266.6819 13.21826552128140
ONEWEB-0568             
1 56062U 23043S   25305.62803577 -.00000046  00000+0 -15516-3 0  9996
2 56062  87.8998 274.0929 0001882  74.7096 285.4243 13.16595231129034
ONEWEB-0574             
1 56063U 23043T   25305.42162439 -.00000032  00000+0 -11003-3 0  9992
2 56063  87.9171 289.4038 0001704  88.1447 271.9883 13.21826781128180
ONEWEB-0575             
1 56064U 23043U   25305.62169053  .00000097  00000+0  22014-3 0  9997
2 56064  87.8996 274.0961 0001521  77.3778 282.7523 13.16595125129028
ONEWEB-0576             
1 56065U 23043V   25305.45071943  .00000193  00000+0  47186-3 0  9993
2 56065  87.8999 274.1291 0001823  78.3368 281.7968 13.16594337128991
ONEWEB-0577             
1 56066U 23043W   25305.60904499  .00000076  00000+0  16451-3 0  9993
2 56066  87.8998 274.0975 0001256  77.7195 282.4077 13.16593885129043
ONEWEB-0578             
1 56067U 23043X   25305.48416310 -.00000038  00000+0 -12245-3 0  9997
2 56067  87.9175 289.4004 0001943  79.5799 280.5554 13.21824005128155
ONEWEB-0579             
1 56068U 23043Y   25305.47428632  .00000118  00000+0  25358-3 0  9993
2 56068  87.9174 289.3895 0001993  94.3148 265.8214 13.21823065128165
ONEWEB-0581             
1 56069U 23043Z   25305.61536884  .00000054  00000+0  10867-3 0  9997
2 56069  87.8995 274.1113 0001520  89.4052 270.7253 13.16594913129010
ONEWEB-0609             
1 56070U 23043AA  25305.46811079  .00000070  00000+0  15165-3 0  9998
2 56070  87.8965 304.6618 0001949  90.2882 269.8471 13.15549647126497
ONEWEB-0613             
1 56071U 23043AB  25305.46335706  .00000202  00000+0  50326-3 0  9992
2 56071  87.8963 304.6761 0002082  96.3049 263.8319 13.15546932126495
ONEWEB-0630             
1 56072U 23043AC  25305.45861950  .00000197  00000+0  48839-3 0  9996
2 56072  87.8961 304.6490 0002094  97.4152 262.7216 13.15548748126483
ONEWEB-0632             
1 56073U 23043AD  25305.45386349  .00000236  00000+0  59260-3 0  9995
2 56073  87.8958 304.6689 0001722  95.4443 264.6884 13.15549643126485
ONEWEB-0633             
1 56074U 23043AE  25305.44752180  .00000207  00000+0  51488-3 0  9997
2 56074  87.8955 304.6335 0002260  95.7763 264.3625 13.15549488126462
ONEWEB-0634             
1 56075U 23043AF  25305.43326396  .00000110  00000+0  25866-3 0  9997
2 56075  87.8962 304.6833 0002098  83.0482 277.0887 13.15548911126451
ONEWEB-0635             
1 56076U 23043AG  25305.42850510  .00000021  00000+0  22526-4 0  9999
2 56076  87.8955 304.6405 0001629  94.2039 265.9278 13.15547232126488
