[{"OBJECT_NAME":"ONEWEB-0566","OBJECT_ID":"2023-043R","EPOCH":"2025-11-01T10:16:38.828352","MEAN_MOTION":13.21826552,"ECCENTRICITY":0.00022132,"INCLINATION":87.9169,"RA_OF_ASC_NODE":289.414,"ARG_OF_PERICENTER":93.4568,"MEAN_ANOMALY":266.6819,"EPHEMERIS_TYPE":0,"CLASSIFICATION_TYPE":"U","NORAD_CAT_ID":56061,"ELEMENT_SET_NO":999,"REV_AT_EPOCH":12814,"BSTAR":-8.3228036e-5,"MEAN_MOTION_DOT":-2.1e-7,"MEAN_MOTION_DDOT":0},{"OBJECT_NAME":"ONEWEB-0568","OBJECT_ID":"2023-043S","EPOCH":"2025-11-01T15:04:22.290528","MEAN_MOTION":13.16595231,"ECCENTRICITY":0.00018822,"INCLINATION":87.8998,"RA_OF_ASC_NODE":274.0929,"ARG_OF_PERICENTER":74.7096,"MEAN_ANOMALY":285.4243,"EPHEMERIS_TYPE":0,"CLASSIFICATION_TYPE":"U","NORAD_CAT_ID":56062,"ELEMENT_SET_NO":999,"REV_AT_EPOCH":12903,"BSTAR":-0.00015516494,"MEAN_MOTION_DOT":-4.6e-7,"MEAN_MOTION_DDOT":0},{"OBJECT_NAME":"ONEWEB-0574","OBJECT_ID":"2023-043T","EPOCH":"2025-11-01T10:07:08.347296","MEAN_MOTION":13.21826781,"ECCENTRICITY":0.00017047,"INCLINATION":87.9171,"RA_OF_ASC_NODE":289.4038,"ARG_OF_PERICENTER":88.1447,"MEAN_ANOMALY":271.9883,"EPHEMERIS_TYPE":0,"CLASSIFICATION_TYPE":"U","NORAD_CAT_ID":56063,"ELEMENT_SET_NO":999,"REV_AT_EPOCH":12818,"BSTAR":-0.00011002848,"MEAN_MOTION_DOT":-3.2e-7,"MEAN_MOTION_DDOT":0},{"OBJECT_NAME":"ONEWEB-0575","OBJECT_ID":"2023-043U","EPOCH":"2025-11-01T14:55:14.061792","MEAN_MOTION":13.16595125,"ECCENTRICITY":0.00015212,"INCLINATION":87.8996,"RA_OF_ASC_NODE":274.0961,"ARG_OF_PERICENTER":77.3778,"MEAN_ANOMALY":282.7523,"EPHEMERIS_TYPE":0,"CLASSIFICATION_TYPE":"U","NORAD_CAT_ID":56064,"ELEMENT_SET_NO":999,"REV_AT_EPOCH":12902,"BSTAR":0.00022014415,"MEAN_MOTION_DOT":9.7e-7,"MEAN_MOTION_DDOT":0},{"OBJECT_NAME":"ONEWEB-0576","OBJECT_ID":"2023-043V","EPOCH":"2025-11-01T10:49:02.158752","MEAN_MOTION":13.16594337,"ECCENTRICITY":0.00018239,"INCLINATION":87.8999,"RA_OF_ASC_NODE":274.1291,"ARG_OF_PERICENTER":78.3368,"MEAN_ANOMALY":281.7968,"EPHEMERIS_TYPE":0,"CLASSIFICATION_TYPE":"U","NORAD_CAT_ID":56065,"ELEMENT_SET_NO":999,"REV_AT_EPOCH":12899,"BSTAR":0.00047185943,"MEAN_MOTION_DOT":1.93e-6,"MEAN_MOTION_DDOT":0},{"OBJECT_NAME":"ONEWEB-0577","OBJECT_ID":"2023-043W","EPOCH":"2025-11-01T14:37:01.487136","MEAN_MOTION":13.16593885,"ECCENTRICITY":0.00012564,"INCLINATION":87.8998,"RA_OF_ASC_NODE":274.0975,"ARG_OF_PERICENTER":77.7195,"MEAN_ANOMALY":282.4077,"EPHEMERIS_TYPE":0,"CLASSIFICATION_TYPE":"U","NORAD_CAT_ID":56066,"ELEMENT_SET_NO":999,"REV_AT_EPOCH":12904,"BSTAR":0.00016451171,"MEAN_MOTION_DOT":7.6e-7,"MEAN_MOTION_DDOT":0},{"OBJECT_NAME":"ONEWEB-0578","OBJECT_ID":"2023-043X","EPOCH":"2025-11-01T11:37:11.691840","MEAN_MOTION":13.21824005,"ECCENTRICITY":0.00019438,"INCLINATION":87.9175,"RA_OF_ASC_NODE":289.4004,"ARG_OF_PERICENTER":79.5799,"MEAN_ANOMALY":280.5554,"EPHEMERIS_TYPE":0,"CLASSIFICATION_TYPE":"U","NORAD_CAT_ID":56067,"ELEMENT_SET_NO":999,"REV_AT_EPOCH":12815,"BSTAR":-0.00012245381,"MEAN_MOTION_DOT":-3.8e-7,"MEAN_MOTION_DDOT":0},{"OBJECT_NAME":"ONEWEB-0579","OBJECT_ID":"2023-043Y","EPOCH":"2025-11-01T11:22:58.338048","MEAN_MOTION":13.21823065,"ECCENTRICITY":0.0001993,"INCLINATION":87.9174,"RA_OF_ASC_NODE":289.3895,"ARG_OF_PERICENTER":94.3148,"MEAN_ANOMALY":265.8214,"EPHEMERIS_TYPE":0,"CLASSIFICATION_TYPE":"U","NORAD_CAT_ID":56068,"ELEMENT_SET_NO":999,"REV_AT_EPOCH":12816,"BSTAR":0.00025357864,"MEAN_MOTION_DOT":1.18e-6,"MEAN_MOTION_DDOT":0},{"OBJECT_NAME":"ONEWEB-0581","OBJECT_ID":"2023-043Z","EPOCH":"2025-11-01T14:46:07.867776","MEAN_MOTION":13.16594913,"ECCENTRICITY":0.00015201,"INCLINATION":87.8995,"RA_OF_ASC_NODE":274.1113,"ARG_OF_PERICENTER":89.4052,"MEAN_ANOMALY":270.7253,"EPHEMERIS_TYPE":0,"CLASSIFICATION_TYPE":"U","NORAD_CAT_ID":56069,"ELEMENT_SET_NO":999,"REV_AT_EPOCH":12901,"BSTAR":0.00010866807,"MEAN_MOTION_DOT":5.4e-7,"MEAN_MOTION_DDOT":0},{"OBJECT_NAME":"ONEWEB-0609","OBJECT_ID":"2023-043AA","EPOCH":"2025-11-01T11:14:04.772256","MEAN_MOTION":13.15549647,"ECCENTRICITY":0.0001949,"INCLINATION":87.8965,"RA_OF_ASC_NODE":304.6618,"ARG_OF_PERICENTER":90.2882,"MEAN_ANOMALY":269.8471,"EPHEMERIS_TYPE":0,"CLASSIFICATION_TYPE":"U","NORAD_CAT_ID":56070,"ELEMENT_SET_NO":999,"REV_AT_EPOCH":12649,"BSTAR":0.00015164727,"MEAN_MOTION_DOT":7.0e-7,"MEAN_MOTION_DDOT":0},{"OBJECT_NAME":"ONEWEB-0613","OBJECT_ID":"2023-043AB","EPOCH":"2025-11-01T11:07:14.049984","MEAN_MOTION":13.15546932,"ECCENTRICITY":0.00020827,"INCLINATION":87.8963,"RA_OF_ASC_NODE":304.6761,"ARG_OF_PERICENTER":96.3049,"MEAN_ANOMALY":263.8319,"EPHEMERIS_TYPE":0,"CLASSIFICATION_TYPE":"U","NORAD_CAT_ID":56071,"ELEMENT_SET_NO":999,"REV_AT_EPOCH":12649,"BSTAR":0.00050325548,"MEAN_MOTION_DOT":2.02e-6,"MEAN_MOTION_DDOT":0},{"OBJECT_NAME":"ONEWEB-0630","OBJECT_ID":"2023-043AC","EPOCH":"2025-11-01T11:00:24.724800","MEAN_MOTION":13.15548748,"ECCENTRICITY":0.00020945,"INCLINATION":87.8961,"RA_OF_ASC_NODE":304.649,"ARG_OF_PERICENTER":97.4152,"MEAN_ANOMALY":262.7216,"EPHEMERIS_TYPE":0,"CLASSIFICATION_TYPE":"U","NORAD_CAT_ID":56072,"ELEMENT_SET_NO":999,"REV_AT_EPOCH":12648,"BSTAR":0.00048839433,"MEAN_MOTION_DOT":1.97e-6,"MEAN_MOTION_DDOT":0},{"OBJECT_NAME":"ONEWEB-0632","OBJECT_ID":"2023-043AD","EPOCH":"2025-11-01T10:53:33.805536","MEAN_MOTION":13.15549643,"ECCENTRICITY":0.00017226,"INCLINATION":87.8958,"RA_OF_ASC_NODE":304.6689,"ARG_OF_PERICENTER":95.4443,"MEAN_ANOMALY":264.6884,"EPHEMERIS_TYPE":0,"CLASSIFICATION_TYPE":"U","NORAD_CAT_ID":56073,"ELEMENT_SET_NO":999,"REV_AT_EPOCH":12648,"BSTAR":0.00059260402,"MEAN_MOTION_DOT":2.36e-6,"MEAN_MOTION_DDOT":0},{"OBJECT_NAME":"ONEWEB-0633","OBJECT_ID":"2023-043AE","EPOCH":"2025-11-01T10:44:25.883520","MEAN_MOTION":13.15549488,"ECCENTRICITY":0.000226,"INCLINATION":87.8955,"RA_OF_ASC_NODE":304.6335,"ARG_OF_PERICENTER":95.7763,"MEAN_ANOMALY":264.3625,"EPHEMERIS_TYPE":0,"CLASSIFICATION_TYPE":"U","NORAD_CAT_ID":56074,"ELEMENT_SET_NO":999,"REV_AT_EPOCH":12646,"BSTAR":0.00051487749,"MEAN_MOTION_DOT":2.07e-6,"MEAN_MOTION_DDOT":0},{"OBJECT_NAME":"ONEWEB-0634","OBJECT_ID":"2023-043AF","EPOCH":"2025-11-01T10:23:54.006144","MEAN_MOTION":13.15548911,"ECCENTRICITY":0.00020989,"INCLINATION":87.8962,"RA_OF_ASC_NODE":304.6833,"ARG_OF_PERICENTER":83.0482,"MEAN_ANOMALY":277.0887,"EPHEMERIS_TYPE":0,"CLASSIFICATION_TYPE":"U","NORAD_CAT_ID":56075,"ELEMENT_SET_NO":999,"REV_AT_EPOCH":12645,"BSTAR":0.00025866357,"MEAN_MOTION_DOT":1.1e-6,"MEAN_MOTION_DDOT":0},{"OBJECT_NAME":"ONEWEB-0635","OBJECT_ID":"2023-043AG","EPOCH":"2025-11-01T10:17:02.840640","MEAN_MOTION":13.15547232,"ECCENTRICITY":0.00016299,"INCLINATION":87.8955,"RA_OF_ASC_NODE":304.6405,"ARG_OF_PERICENTER":94.2039,"MEAN_ANOMALY":265.9278,"EPHEMERIS_TYPE":0,"CLASSIFICATION_TYPE":"U","NORAD_CAT_ID":56076,"ELEMENT_SET_NO":999,"REV_AT_EPOCH":12648,"BSTAR":2.252636e-5,"MEAN_MOTION_DOT":2.1e-7,"MEAN_MOTION_DDOT":0}]
